{"type": "FeatureCollection", "features": [{"type": "Feature", "properties": {"norad_id": 28890, "name": "BEIJING 1", "group": "dmc", "lat": 62.46145251394087, "lon": -40.67150160584233, "alt_km": 665.1019756195556, "timestamp": "2025-12-21T14:40:47.577339+00:00", "meta": {"OBJECT_NAME": "BEIJING 1", "OBJECT_ID": "2005-043A", "EPOCH": "2025-12-21T07:35:12.852672", "MEAN_MOTION": 14.63372515, "ECCENTRICITY": 0.00157347, "INCLINATION": 98.266, "RA_OF_ASC_NODE": 122.8435, "ARG_OF_PERICENTER": 116.0783, "MEAN_ANOMALY": 244.204, "EPHEMERIS_TYPE": 0, "CLASSIFICATION_TYPE": "U", "NORAD_CAT_ID": 28890, "ELEMENT_SET_NO": 999, "REV_AT_EPOCH": 7463, "BSTAR": 9.870136e-06, "MEAN_MOTION_DOT": 2e-08, "MEAN_MOTION_DDOT": 0}, "tle": {"line1": "1 28890U 05043A   25355.31612098  .00000002  00000+0  98701-5 0  9990", "line2": "2 28890  98.2660 122.8435 0015734 116.0783 244.2040 14.63372515 74634"}}, "geometry": {"type": "Point", "coordinates": [-40.67150160584233, 62.46145251394087]}}, {"type": "Feature", "properties": {"norad_id": 33320, "name": "HUANJING 1A (HJ-1A)", "group": "dmc", "lat": 61.494148888729605, "lon": -30.79629443668535, "alt_km": 604.9540378627235, "timestamp": "2025-12-21T14:40:47.577363+00:00", "meta": {"OBJECT_NAME": "HUANJING 1A (HJ-1A)", "OBJECT_ID": "2008-041A", "EPOCH": "2025-12-21T06:18:21.256128", "MEAN_MOTION": 14.83419593, "ECCENTRICITY": 0.00195233, "INCLINATION": 97.6537, "RA_OF_ASC_NODE": 343.2054, "ARG_OF_PERICENTER": 7.4904, "MEAN_ANOMALY": 352.6599, "EPHEMERIS_TYPE": 0, "CLASSIFICATION_TYPE": "U", "NORAD_CAT_ID": 33320, "ELEMENT_SET_NO": 999, "REV_AT_EPOCH": 93202, "BSTAR": 0.00019320497, "MEAN_MOTION_DOT": 1.54e-05, "MEAN_MOTION_DDOT": 0}, "tle": {"line1": "1 33320U 08041A   25355.26274602  .00001540  00000+0  19320-3 0  9990", "line2": "2 33320  97.6537 343.2054 0019523   7.4904 352.6599 14.83419593932027"}}, "geometry": {"type": "Point", "coordinates": [-30.79629443668535, 61.494148888729605]}}, {"type": "Feature", "properties": {"norad_id": 33321, "name": "HUANJING 1B (HJ-1B)", "group": "dmc", "lat": -80.77296094087009, "lon": 111.49871351309247, "alt_km": 648.9047039194938, "timestamp": "2025-12-21T14:40:47.577378+00:00", "meta": {"OBJECT_NAME": "HUANJING 1B (HJ-1B)", "OBJECT_ID": "2008-041B", "EPOCH": "2025-12-21T07:00:41.133600", "MEAN_MOTION": 14.82844154, "ECCENTRICITY": 0.0038017, "INCLINATION": 97.6396, "RA_OF_ASC_NODE": 346.9082, "ARG_OF_PERICENTER": 48.7476, "MEAN_ANOMALY": 311.7003, "EPHEMERIS_TYPE": 0, "CLASSIFICATION_TYPE": "U", "NORAD_CAT_ID": 33321, "ELEMENT_SET_NO": 999, "REV_AT_EPOCH": 93204, "BSTAR": 0.00018912012, "MEAN_MOTION_DOT": 1.499e-05, "MEAN_MOTION_DDOT": 0}, "tle": {"line1": "1 33321U 08041B   25355.29214275  .00001499  00000+0  18912-3 0  9993", "line2": "2 33321  97.6396 346.9082 0038017  48.7476 311.7003 14.82844154932045"}}, "geometry": {"type": "Point", "coordinates": [111.49871351309247, -80.77296094087009]}}, {"type": "Feature", "properties": {"norad_id": 33446, "name": "YAOGAN-4", "group": "dmc", "lat": 7.428463499369909, "lon": 106.6639813451989, "alt_km": 627.3957490179037, "timestamp": "2025-12-21T14:40:47.577390+00:00", "meta": {"OBJECT_NAME": "YAOGAN-4", "OBJECT_ID": "2008-061A", "EPOCH": "2025-12-20T07:07:49.061568", "MEAN_MOTION": 14.82702731, "ECCENTRICITY": 0.00131175, "INCLINATION": 97.9192, "RA_OF_ASC_NODE": 284.3224, "ARG_OF_PERICENTER": 296.7402, "MEAN_ANOMALY": 63.2469, "EPHEMERIS_TYPE": 0, "CLASSIFICATION_TYPE": "U", "NORAD_CAT_ID": 33446, "ELEMENT_SET_NO": 999, "REV_AT_EPOCH": 91915, "BSTAR": 0.000123707, "MEAN_MOTION_DOT": 9.46e-06, "MEAN_MOTION_DDOT": 0}, "tle": {"line1": "1 33446U 08061A   25354.29709562  .00000946  00000+0  12371-3 0  9999", "line2": "2 33446  97.9192 284.3224 0013117 296.7402  63.2469 14.82702731919157"}}, "geometry": {"type": "Point", "coordinates": [106.6639813451989, 7.428463499369909]}}, {"type": "Feature", "properties": {"norad_id": 35681, "name": "DEIMOS-1", "group": "dmc", "lat": 54.63433349606458, "lon": 144.79118879046703, "alt_km": 638.3104337106124, "timestamp": "2025-12-21T14:40:47.577401+00:00", "meta": {"OBJECT_NAME": "DEIMOS-1", "OBJECT_ID": "2009-041A", "EPOCH": "2025-12-21T06:17:20.510016", "MEAN_MOTION": 14.7496328, "ECCENTRICITY": 0.00025927, "INCLINATION": 97.7146, "RA_OF_ASC_NODE": 155.4684, "ARG_OF_PERICENTER": 66.3377, "MEAN_ANOMALY": 293.8105, "EPHEMERIS_TYPE": 0, "CLASSIFICATION_TYPE": "U", "NORAD_CAT_ID": 35681, "ELEMENT_SET_NO": 999, "REV_AT_EPOCH": 88065, "BSTAR": 3.8588828e-05, "MEAN_MOTION_DOT": 2.12e-06, "MEAN_MOTION_DDOT": 0}, "tle": {"line1": "1 35681U 09041A   25355.26204294  .00000212  00000+0  38589-4 0  9997", "line2": "2 35681  97.7146 155.4684 0002592  66.3377 293.8105 14.74963280880651"}}, "geometry": {"type": "Point", "coordinates": [144.79118879046703, 54.63433349606458]}}, {"type": "Feature", "properties": {"norad_id": 35683, "name": "UK-DMC 2", "group": "dmc", "lat": 81.87623609136183, "lon": 25.577003122668664, "alt_km": 634.6003950628938, "timestamp": "2025-12-21T14:40:47.577412+00:00", "meta": {"OBJECT_NAME": "UK-DMC 2", "OBJECT_ID": "2009-041C", "EPOCH": "2025-12-21T07:45:17.180064", "MEAN_MOTION": 14.75636428, "ECCENTRICITY": 0.00015278, "INCLINATION": 97.8565, "RA_OF_ASC_NODE": 129.9835, "ARG_OF_PERICENTER": 93.4995, "MEAN_ANOMALY": 266.639, "EPHEMERIS_TYPE": 0, "CLASSIFICATION_TYPE": "U", "NORAD_CAT_ID": 35683, "ELEMENT_SET_NO": 999, "REV_AT_EPOCH": 88033, "BSTAR": 2.5135058e-05, "MEAN_MOTION_DOT": 1.23e-06, "MEAN_MOTION_DDOT": 0}, "tle": {"line1": "1 35683U 09041C   25355.32311551  .00000123  00000+0  25135-4 0  9995", "line2": "2 35683  97.8565 129.9835 0001527  93.4995 266.6390 14.75636428880338"}}, "geometry": {"type": "Point", "coordinates": [25.577003122668664, 81.87623609136183]}}, {"type": "Feature", "properties": {"norad_id": 40715, "name": "DMC3-FM1", "group": "dmc", "lat": 81.36089762287722, "lon": 104.95975102863369, "alt_km": 607.5742154603358, "timestamp": "2025-12-21T14:40:47.577423+00:00", "meta": {"OBJECT_NAME": "DMC3-FM1", "OBJECT_ID": "2015-032A", "EPOCH": "2025-12-21T06:10:29.792064", "MEAN_MOTION": 14.85453263, "ECCENTRICITY": 0.00041505, "INCLINATION": 97.6688, "RA_OF_ASC_NODE": 222.1389, "ARG_OF_PERICENTER": 286.181, "MEAN_ANOMALY": 73.8948, "EPHEMERIS_TYPE": 0, "CLASSIFICATION_TYPE": "U", "NORAD_CAT_ID": 40715, "ELEMENT_SET_NO": 999, "REV_AT_EPOCH": 56349, "BSTAR": 9.1314663e-05, "MEAN_MOTION_DOT": 7.36e-06, "MEAN_MOTION_DDOT": 0}, "tle": {"line1": "1 40715U 15032A   25355.25728926  .00000736  00000+0  91315-4 0  9997", "line2": "2 40715  97.6688 222.1389 0004150 286.1810  73.8948 14.85453263563493"}}, "geometry": {"type": "Point", "coordinates": [104.95975102863369, 81.36089762287722]}}, {"type": "Feature", "properties": {"norad_id": 40716, "name": "DMC3-FM2", "group": "dmc", "lat": -26.019615887443802, "lon": -132.2951176810597, "alt_km": 615.4066623551416, "timestamp": "2025-12-21T14:40:47.577434+00:00", "meta": {"OBJECT_NAME": "DMC3-FM2", "OBJECT_ID": "2015-032B", "EPOCH": "2025-12-21T06:42:52.363872", "MEAN_MOTION": 14.85457318, "ECCENTRICITY": 0.00046847, "INCLINATION": 97.6748, "RA_OF_ASC_NODE": 223.6106, "ARG_OF_PERICENTER": 293.4736, "MEAN_ANOMALY": 66.5987, "EPHEMERIS_TYPE": 0, "CLASSIFICATION_TYPE": "U", "NORAD_CAT_ID": 40716, "ELEMENT_SET_NO": 999, "REV_AT_EPOCH": 56349, "BSTAR": 0.00012015148, "MEAN_MOTION_DOT": 9.85e-06, "MEAN_MOTION_DDOT": 0}, "tle": {"line1": "1 40716U 15032B   25355.27977273  .00000985  00000+0  12015-3 0  9996", "line2": "2 40716  97.6748 223.6106 0004684 293.4736  66.5987 14.85457318563491"}}, "geometry": {"type": "Point", "coordinates": [-132.2951176810597, -26.019615887443802]}}, {"type": "Feature", "properties": {"norad_id": 40717, "name": "DMC3-FM3", "group": "dmc", "lat": -37.490096638148785, "lon": 39.628114852201264, "alt_km": 617.9635111047592, "timestamp": "2025-12-21T14:40:47.577445+00:00", "meta": {"OBJECT_NAME": "DMC3-FM3", "OBJECT_ID": "2015-032C", "EPOCH": "2025-12-21T05:37:06.996864", "MEAN_MOTION": 14.8543998, "ECCENTRICITY": 0.00040997, "INCLINATION": 97.6803, "RA_OF_ASC_NODE": 225.2053, "ARG_OF_PERICENTER": 295.5927, "MEAN_ANOMALY": 64.4865, "EPHEMERIS_TYPE": 0, "CLASSIFICATION_TYPE": "U", "NORAD_CAT_ID": 40717, "ELEMENT_SET_NO": 999, "REV_AT_EPOCH": 56349, "BSTAR": -7.181136e-06, "MEAN_MOTION_DOT": -1.13e-06, "MEAN_MOTION_DDOT": 0}, "tle": {"line1": "1 40717U 15032C   25355.23410876 -.00000113  00000+0 -71811-5 0  9990", "line2": "2 40717  97.6803 225.2053 0004099 295.5927  64.4865 14.85439980563495"}}, "geometry": {"type": "Point", "coordinates": [39.628114852201264, -37.490096638148785]}}]}